[
    {
        "Altitude(m)": 604221.2282811144,
        "Argument of Periapsis(deg)": 0.0,
        "Eccentricity": 0.0,
        "Inclination(deg)": 60.0,
        "Latitude(deg)": 14.117382454878232,
        "Longitude(deg)": 113.33415648451947,
        "Mean Anomaly(deg)": 16.363600000000012,
        "RAAN(deg)": 205.0,
        "Satellite Name": "Test1 903",
        "Satellite Number": 903,
        "Semi-Major Axis(m)": 6980739.136638005,
        "Time(s)": 0
    },
    {
        "Altitude(m)": 604235.370012064,
        "Argument of Periapsis(deg)": 0.00010418945913296404,
        "Eccentricity": 0.0,
        "Inclination(deg)": 60.0,
        "Latitude(deg)": 14.651779155126732,
        "Longitude(deg)": 113.6226037125166,
        "Mean Anomaly(deg)": 16.983706145461838,
        "RAAN(deg)": 204.99957995086024,
        "Satellite Name": "Test1 903",
        "Satellite Number": 903,
        "Semi-Major Axis(m)": 6980739.136638005,
        "Time(s)": 10
    },
    {
        "Altitude(m)": 604252.4088311582,
        "Argument of Periapsis(deg)": 0.0002083789182659281,
        "Eccentricity": 0.0,
        "Inclination(deg)": 60.0,
        "Latitude(deg)": 15.185686039124203,
        "Longitude(deg)": 113.91265395502437,
        "Mean Anomaly(deg)": 17.603812290923667,
        "RAAN(deg)": 204.99915990172053,
        "Satellite Name": "Test1 903",
        "Satellite Number": 903,
        "Semi-Major Axis(m)": 6980739.136638005,
        "Time(s)": 20
    },
    {
        "Altitude(m)": 604272.3129092626,
        "Argument of Periapsis(deg)": 0.00031256837739889213,
        "Eccentricity": 0.0,
        "Inclination(deg)": 60.0,
        "Latitude(deg)": 15.719081802216614,
        "Longitude(deg)": 114.2043747244032,
        "Mean Anomaly(deg)": 18.223918436385496,
        "RAAN(deg)": 204.99873985258077,
        "Satellite Name": "Test1 903",
        "Satellite Number": 903,
        "Semi-Major Axis(m)": 6980739.136638005,
        "Time(s)": 30
    },
    {
        "Altitude(m)": 604295.0491425049,
        "Argument of Periapsis(deg)": 0.0004167578365318562,
        "Eccentricity": 0.0,
        "Inclination(deg)": 60.0,
        "Latitude(deg)": 16.251944804029883,
        "Longitude(deg)": 114.49783505563832,
        "Mean Anomaly(deg)": 18.84402458184732,
        "RAAN(deg)": 204.99831980344103,
        "Satellite Name": "Test1 903",
        "Satellite Number": 903,
        "Semi-Major Axis(m)": 6980739.136638005,
        "Time(s)": 40
    },
    {
        "Altitude(m)": 604320.5831712229,
        "Argument of Periapsis(deg)": 0.0005209472956648203,
        "Eccentricity": 0.0,
        "Inclination(deg)": 60.0,
        "Latitude(deg)": 16.78425305243388,
        "Longitude(deg)": 114.7931045419204,
        "Mean Anomaly(deg)": 19.46413072730915,
        "RAAN(deg)": 204.99789975430127,
        "Satellite Name": "Test1 903",
        "Satellite Number": 903,
        "Semi-Major Axis(m)": 6980739.136638005,
        "Time(s)": 50
    },
    {
        "Altitude(m)": 604348.879399488,
        "Argument of Periapsis(deg)": 0.0006251367547977843,
        "Eccentricity": 0.0,
        "Inclination(deg)": 60.0,
        "Latitude(deg)": 17.31598418702259,
        "Longitude(deg)": 115.09025388395413,
        "Mean Anomaly(deg)": 20.084236872770976,
        "RAAN(deg)": 204.99747970516157,
        "Satellite Name": "Test1 903",
        "Satellite Number": 903,
        "Semi-Major Axis(m)": 6980739.136638005,
        "Time(s)": 60
    },
    {
        "Altitude(m)": 604379.9010152096,
        "Argument of Periapsis(deg)": 0.0007293262139307483,
        "Eccentricity": 0.0,
        "Inclination(deg)": 60.0,
        "Latitude(deg)": 17.847115462087856,
        "Longitude(deg)": 115.38935544014622,
        "Mean Anomaly(deg)": 20.704343018232805,
        "RAAN(deg)": 204.99705965602178,
        "Satellite Name": "Test1 903",
        "Satellite Number": 903,
        "Semi-Major Axis(m)": 6980739.136638005,
        "Time(s)": 70
    },
    {
        "Altitude(m)": 604413.6100108112,
        "Argument of Periapsis(deg)": 0.0008335156730637124,
        "Eccentricity": 0.0,
        "Inclination(deg)": 60.0,
        "Latitude(deg)": 18.377623729063746,
        "Longitude(deg)": 115.69048226482319,
        "Mean Anomaly(deg)": 21.32444916369466,
        "RAAN(deg)": 204.99663960688207,
        "Satellite Name": "Test1 903",
        "Satellite Number": 903,
        "Semi-Major Axis(m)": 6980739.136638005,
        "Time(s)": 80
    },
    {
        "Altitude(m)": 604449.9672044788,
        "Argument of Periapsis(deg)": 0.0009377051321966765,
        "Eccentricity": 0.0,
        "Inclination(deg)": 60.0,
        "Latitude(deg)": 18.90748541841479,
        "Longitude(deg)": 115.99370866024874,
        "Mean Anomaly(deg)": 21.944555309156485,
        "RAAN(deg)": 204.9962195577423,
        "Satellite Name": "Test1 903",
        "Satellite Number": 903,
        "Semi-Major Axis(m)": 6980739.136638005,
        "Time(s)": 90
    },
    {
        "Altitude(m)": 604488.9322619671,
        "Argument of Periapsis(deg)": 0.0010418945913296407,
        "Eccentricity": 0.0,
        "Inclination(deg)": 60.0,
        "Latitude(deg)": 19.43667652094383,
        "Longitude(deg)": 116.29911072959067,
        "Mean Anomaly(deg)": 22.564661454618314,
        "RAAN(deg)": 204.99579950860257,
        "Satellite Name": "Test1 903",
        "Satellite Number": 903,
        "Semi-Major Axis(m)": 6980739.136638005,
        "Time(s)": 100
    },
    {
        "Altitude(m)": 604530.463718932,
        "Argument of Periapsis(deg)": 0.0011460840504626045,
        "Eccentricity": 0.0,
        "Inclination(deg)": 60.0,
        "Latitude(deg)": 19.965172568493802,
        "Longitude(deg)": 116.60676541798003,
        "Mean Anomaly(deg)": 23.18476760008014,
        "RAAN(deg)": 204.9953794594628,
        "Satellite Name": "Test1 903",
        "Satellite Number": 903,
        "Semi-Major Axis(m)": 6980739.136638005,
        "Time(s)": 110
    },
    {
        "Altitude(m)": 604574.5190037689,
        "Argument of Periapsis(deg)": 0.0012502735095955685,
        "Eccentricity": 0.0,
        "Inclination(deg)": 60.0,
        "Latitude(deg)": 20.49294861401473,
        "Longitude(deg)": 116.9167510674316,
        "Mean Anomaly(deg)": 23.80487374554197,
        "RAAN(deg)": 204.9949594103231,
        "Satellite Name": "Test1 903",
        "Satellite Number": 903,
        "Semi-Major Axis(m)": 6980739.136638005,
        "Time(s)": 120
    },
    {
        "Altitude(m)": 604621.0544610315,
        "Argument of Periapsis(deg)": 0.0013544629687285324,
        "Eccentricity": 0.0,
        "Inclination(deg)": 60.0,
        "Latitude(deg)": 21.019979210968867,
        "Longitude(deg)": 117.22914797276538,
        "Mean Anomaly(deg)": 24.424979891003794,
        "RAAN(deg)": 204.99453936118334,
        "Satellite Name": "Test1 903",
        "Satellite Number": 903,
        "Semi-Major Axis(m)": 6980739.136638005,
        "Time(s)": 130
    },
    {
        "Altitude(m)": 604670.0253752795,
        "Argument of Periapsis(deg)": 0.0014586524278614966,
        "Eccentricity": 0.0,
        "Inclination(deg)": 60.0,
        "Latitude(deg)": 21.546238392046433,
        "Longitude(deg)": 117.54403742566943,
        "Mean Anomaly(deg)": 25.045086036465623,
        "RAAN(deg)": 204.9941193120436,
        "Satellite Name": "Test1 903",
        "Satellite Number": 903,
        "Semi-Major Axis(m)": 6980739.136638005,
        "Time(s)": 140
    },
    {
        "Altitude(m)": 604721.3859954638,
        "Argument of Periapsis(deg)": 0.0015628418869944607,
        "Eccentricity": 0.0,
        "Inclination(deg)": 60.0,
        "Latitude(deg)": 22.071699647160127,
        "Longitude(deg)": 117.86150227266273,
        "Mean Anomaly(deg)": 25.665192181927477,
        "RAAN(deg)": 204.99369926290385,
        "Satellite Name": "Test1 903",
        "Satellite Number": 903,
        "Semi-Major Axis(m)": 6980739.136638005,
        "Time(s)": 150
    },
    {
        "Altitude(m)": 604775.0895597567,
        "Argument of Periapsis(deg)": 0.0016670313461274247,
        "Eccentricity": 0.0,
        "Inclination(deg)": 60.0,
        "Latitude(deg)": 22.596335900689375,
        "Longitude(deg)": 118.18162747409107,
        "Mean Anomaly(deg)": 26.285298327389302,
        "RAAN(deg)": 204.99327921376414,
        "Satellite Name": "Test1 903",
        "Satellite Number": 903,
        "Semi-Major Axis(m)": 6980739.136638005,
        "Time(s)": 160
    },
    {
        "Altitude(m)": 604831.0883208694,
        "Argument of Periapsis(deg)": 0.0017712208052603888,
        "Eccentricity": 0.0,
        "Inclination(deg)": 60.0,
        "Latitude(deg)": 23.120119487943764,
        "Longitude(deg)": 118.50449915128584,
        "Mean Anomaly(deg)": 26.905404472851103,
        "RAAN(deg)": 204.99285916462438,
        "Satellite Name": "Test1 903",
        "Satellite Number": 903,
        "Semi-Major Axis(m)": 6980739.136638005,
        "Time(s)": 170
    },
    {
        "Altitude(m)": 604889.333571797,
        "Argument of Periapsis(deg)": 0.001875410264393353,
        "Eccentricity": 0.0,
        "Inclination(deg)": 60.0,
        "Latitude(deg)": 23.643022130811595,
        "Longitude(deg)": 118.83020514763454,
        "Mean Anomaly(deg)": 27.525510618312932,
        "RAAN(deg)": 204.99243911548464,
        "Satellite Name": "Test1 903",
        "Satellite Number": 903,
        "Semi-Major Axis(m)": 6980739.136638005,
        "Time(s)": 180
    },
    {
        "Altitude(m)": 604949.7756720042,
        "Argument of Periapsis(deg)": 0.0019795997235263173,
        "Eccentricity": 0.0,
        "Inclination(deg)": 60.0,
        "Latitude(deg)": 24.16501491256154,
        "Longitude(deg)": 119.15883559068318,
        "Mean Anomaly(deg)": 28.14561676377479,
        "RAAN(deg)": 204.99201906634488,
        "Satellite Name": "Test1 903",
        "Satellite Number": 903,
        "Semi-Major Axis(m)": 6980739.136638005,
        "Time(s)": 190
    }
]